[{"OBJECT_NAME":"STARLINK-33915","OBJECT_ID":"2025-087M","EPOCH":"2025-11-17T10:38:42.018432","MEAN_MOTION":15.3016116,"ECCENTRICITY":0.0001528,"INCLINATION":53.1611,"RA_OF_ASC_NODE":20.9716,"ARG_OF_PERICENTER":106.457,"MEAN_ANOMALY":253.6598,"EPHEMERIS_TYPE":0,"CLASSIFICATION_TYPE":"U","NORAD_CAT_ID":63708,"ELEMENT_SET_NO":999,"REV_AT_EPOCH":3201,"BSTAR":0.0013788,"MEAN_MOTION_DOT":0.00040652,"MEAN_MOTION_DDOT":0},{"OBJECT_NAME":"STARLINK-33862","OBJECT_ID":"2025-087N","EPOCH":"2025-11-17T10:29:34.346112","MEAN_MOTION":15.30137956,"ECCENTRICITY":0.0001361,"INCLINATION":53.1626,"RA_OF_ASC_NODE":20.9345,"ARG_OF_PERICENTER":81.7672,"MEAN_ANOMALY":278.3483,"EPHEMERIS_TYPE":0,"CLASSIFICATION_TYPE":"U","NORAD_CAT_ID":63709,"ELEMENT_SET_NO":999,"REV_AT_EPOCH":3201,"BSTAR":0.0015263,"MEAN_MOTION_DOT":0.00045031,"MEAN_MOTION_DDOT":0},{"OBJECT_NAME":"STARLINK-33920","OBJECT_ID":"2025-087P","EPOCH":"2025-11-17T09:28:57.330336","MEAN_MOTION":15.30212238,"ECCENTRICITY":9.24e-5,"INCLINATION":53.1598,"RA_OF_ASC_NODE":21.3816,"ARG_OF_PERICENTER":104.3882,"MEAN_ANOMALY":255.7222,"EPHEMERIS_TYPE":0,"CLASSIFICATION_TYPE":"U","NORAD_CAT_ID":63710,"ELEMENT_SET_NO":999,"REV_AT_EPOCH":3200,"BSTAR":0.0014591,"MEAN_MOTION_DOT":0.00043123,"MEAN_MOTION_DDOT":0},{"OBJECT_NAME":"STARLINK-33580","OBJECT_ID":"2025-087Q","EPOCH":"2025-11-17T11:16:41.601216","MEAN_MOTION":15.30155961,"ECCENTRICITY":0.000119,"INCLINATION":53.1604,"RA_OF_ASC_NODE":21.1368,"ARG_OF_PERICENTER":85.9862,"MEAN_ANOMALY":274.1275,"EPHEMERIS_TYPE":0,"CLASSIFICATION_TYPE":"U","NORAD_CAT_ID":63711,"ELEMENT_SET_NO":999,"REV_AT_EPOCH":3201,"BSTAR":0.0023571,"MEAN_MOTION_DOT":0.00070015,"MEAN_MOTION_DDOT":0},{"OBJECT_NAME":"STARLINK-33783","OBJECT_ID":"2025-087R","EPOCH":"2025-11-17T09:25:55.100640","MEAN_MOTION":15.30186102,"ECCENTRICITY":0.0001927,"INCLINATION":53.1595,"RA_OF_ASC_NODE":21.3658,"ARG_OF_PERICENTER":132.469,"MEAN_ANOMALY":227.6474,"EPHEMERIS_TYPE":0,"CLASSIFICATION_TYPE":"U","NORAD_CAT_ID":63712,"ELEMENT_SET_NO":999,"REV_AT_EPOCH":3200,"BSTAR":0.0010872,"MEAN_MOTION_DOT":0.00031967,"MEAN_MOTION_DDOT":0},{"OBJECT_NAME":"STARLINK-33773","OBJECT_ID":"2025-087S","EPOCH":"2025-11-17T11:43:52.987008","MEAN_MOTION":15.30168396,"ECCENTRICITY":0.000196,"INCLINATION":53.1618,"RA_OF_ASC_NODE":20.5412,"ARG_OF_PERICENTER":53.6268,"MEAN_ANOMALY":306.4913,"EPHEMERIS_TYPE":0,"CLASSIFICATION_TYPE":"U","NORAD_CAT_ID":63713,"ELEMENT_SET_NO":999,"REV_AT_EPOCH":3202,"BSTAR":0.0018462,"MEAN_MOTION_DOT":0.00054672,"MEAN_MOTION_DDOT":0},{"OBJECT_NAME":"STARLINK-33745","OBJECT_ID":"2025-087T","EPOCH":"2025-11-17T11:39:19.486944","MEAN_MOTION":15.30171918,"ECCENTRICITY":0.000158,"INCLINATION":53.1609,"RA_OF_ASC_NODE":20.5196,"ARG_OF_PERICENTER":78.6431,"MEAN_ANOMALY":281.4747,"EPHEMERIS_TYPE":0,"CLASSIFICATION_TYPE":"U","NORAD_CAT_ID":63714,"ELEMENT_SET_NO":999,"REV_AT_EPOCH":3202,"BSTAR":0.000975,"MEAN_MOTION_DOT":0.00028604,"MEAN_MOTION_DDOT":0},{"OBJECT_NAME":"STARLINK-33728","OBJECT_ID":"2025-087U","EPOCH":"2025-11-17T11:49:57.265824","MEAN_MOTION":15.30178794,"ECCENTRICITY":0.0001203,"INCLINATION":53.1612,"RA_OF_ASC_NODE":20.5646,"ARG_OF_PERICENTER":71.7569,"MEAN_ANOMALY":288.3562,"EPHEMERIS_TYPE":0,"CLASSIFICATION_TYPE":"U","NORAD_CAT_ID":63715,"ELEMENT_SET_NO":999,"REV_AT_EPOCH":3202,"BSTAR":0.00078067,"MEAN_MOTION_DOT":0.00022818,"MEAN_MOTION_DDOT":0},{"OBJECT_NAME":"STARLINK-33749","OBJECT_ID":"2025-087V","EPOCH":"2025-11-17T09:33:30.930624","MEAN_MOTION":15.30204055,"ECCENTRICITY":0.000124,"INCLINATION":53.1597,"RA_OF_ASC_NODE":21.3969,"ARG_OF_PERICENTER":83.6213,"MEAN_ANOMALY":276.4929,"EPHEMERIS_TYPE":0,"CLASSIFICATION_TYPE":"U","NORAD_CAT_ID":63716,"ELEMENT_SET_NO":999,"REV_AT_EPOCH":3200,"BSTAR":0.00050238,"MEAN_MOTION_DOT":0.00014551,"MEAN_MOTION_DDOT":0},{"OBJECT_NAME":"STARLINK-33725","OBJECT_ID":"2025-087W","EPOCH":"2025-11-17T10:20:27.771072","MEAN_MOTION":15.30178609,"ECCENTRICITY":0.0001485,"INCLINATION":53.1619,"RA_OF_ASC_NODE":20.8887,"ARG_OF_PERICENTER":93.3504,"MEAN_ANOMALY":266.7667,"EPHEMERIS_TYPE":0,"CLASSIFICATION_TYPE":"U","NORAD_CAT_ID":63717,"ELEMENT_SET_NO":999,"REV_AT_EPOCH":3201,"BSTAR":0.0021432,"MEAN_MOTION_DOT":0.0006362,"MEAN_MOTION_DDOT":0},{"OBJECT_NAME":"STARLINK-33641","OBJECT_ID":"2025-087X","EPOCH":"2025-11-17T10:43:15.288672","MEAN_MOTION":15.30169773,"ECCENTRICITY":0.0001372,"INCLINATION":53.1607,"RA_OF_ASC_NODE":20.9856,"ARG_OF_PERICENTER":96.307,"MEAN_ANOMALY":263.8087,"EPHEMERIS_TYPE":0,"CLASSIFICATION_TYPE":"U","NORAD_CAT_ID":63718,"ELEMENT_SET_NO":999,"REV_AT_EPOCH":3201,"BSTAR":0.00075715,"MEAN_MOTION_DOT":0.00022111,"MEAN_MOTION_DDOT":0},{"OBJECT_NAME":"STARLINK-33727","OBJECT_ID":"2025-087Y","EPOCH":"2025-11-17T11:36:16.966944","MEAN_MOTION":15.30190473,"ECCENTRICITY":0.0001466,"INCLINATION":53.1622,"RA_OF_ASC_NODE":20.5045,"ARG_OF_PERICENTER":84.0704,"MEAN_ANOMALY":276.0464,"EPHEMERIS_TYPE":0,"CLASSIFICATION_TYPE":"U","NORAD_CAT_ID":63719,"ELEMENT_SET_NO":999,"REV_AT_EPOCH":3202,"BSTAR":0.00029552,"MEAN_MOTION_DOT":8.401e-5,"MEAN_MOTION_DDOT":0},{"OBJECT_NAME":"STARLINK-33757","OBJECT_ID":"2025-087Z","EPOCH":"2025-11-17T10:35:39.375744","MEAN_MOTION":15.30163103,"ECCENTRICITY":0.0001519,"INCLINATION":53.1613,"RA_OF_ASC_NODE":20.9552,"ARG_OF_PERICENTER":117.6691,"MEAN_ANOMALY":242.4464,"EPHEMERIS_TYPE":0,"CLASSIFICATION_TYPE":"U","NORAD_CAT_ID":63720,"ELEMENT_SET_NO":999,"REV_AT_EPOCH":3201,"BSTAR":0.0011703,"MEAN_MOTION_DOT":0.00034423,"MEAN_MOTION_DDOT":0},{"OBJECT_NAME":"STARLINK-33774","OBJECT_ID":"2025-087AA","EPOCH":"2025-11-17T10:56:55.934016","MEAN_MOTION":15.30165902,"ECCENTRICITY":0.0001246,"INCLINATION":53.1599,"RA_OF_ASC_NODE":21.0481,"ARG_OF_PERICENTER":99.5056,"MEAN_ANOMALY":260.6085,"EPHEMERIS_TYPE":0,"CLASSIFICATION_TYPE":"U","NORAD_CAT_ID":63721,"ELEMENT_SET_NO":999,"REV_AT_EPOCH":3201,"BSTAR":0.0019695,"MEAN_MOTION_DOT":0.00058369,"MEAN_MOTION_DDOT":0},{"OBJECT_NAME":"STARLINK-33767","OBJECT_ID":"2025-087AB","EPOCH":"2025-11-17T11:51:28.771200","MEAN_MOTION":15.30173408,"ECCENTRICITY":0.0001382,"INCLINATION":53.1614,"RA_OF_ASC_NODE":20.5701,"ARG_OF_PERICENTER":92.7945,"MEAN_ANOMALY":267.3214,"EPHEMERIS_TYPE":0,"CLASSIFICATION_TYPE":"U","NORAD_CAT_ID":63722,"ELEMENT_SET_NO":999,"REV_AT_EPOCH":3202,"BSTAR":0.0016312,"MEAN_MOTION_DOT":0.00048227,"MEAN_MOTION_DDOT":0},{"OBJECT_NAME":"STARLINK-33806","OBJECT_ID":"2025-087AC","EPOCH":"2025-11-17T10:26:32.417088","MEAN_MOTION":15.30185413,"ECCENTRICITY":0.0001178,"INCLINATION":53.1614,"RA_OF_ASC_NODE":20.9124,"ARG_OF_PERICENTER":83.0664,"MEAN_ANOMALY":277.0471,"EPHEMERIS_TYPE":0,"CLASSIFICATION_TYPE":"U","NORAD_CAT_ID":63723,"ELEMENT_SET_NO":999,"REV_AT_EPOCH":3201,"BSTAR":0.00062512,"MEAN_MOTION_DOT":0.00018192,"MEAN_MOTION_DDOT":0}]
