STARLINK-33915          
1 63708U 25087M   25321.44354188  .00040652  00000+0  13788-2 0  9991
2 63708  53.1611  20.9716 0001528 106.4570 253.6598 15.30161160 32015
STARLINK-33862          
1 63709U 25087N   25321.43720308  .00045031  00000+0  15263-2 0  9998
2 63709  53.1626  20.9345 0001361  81.7672 278.3483 15.30137956 32016
STARLINK-33920          
1 63710U 25087P   25321.39510799  .00043123  00000+0  14591-2 0  9999
2 63710  53.1598  21.3816 0000924 104.3882 255.7222 15.30212238 32009
STARLINK-33580          
1 63711U 25087Q   25321.46992594  .00070015  00000+0  23571-2 0  9993
2 63711  53.1604  21.1368 0001190  85.9862 274.1275 15.30155961 32019
STARLINK-33783          
1 63712U 25087R   25321.39299885  .00031967  00000+0  10872-2 0  9992
2 63712  53.1595  21.3658 0001927 132.4690 227.6474 15.30186102 32002
STARLINK-33773          
1 63713U 25087S   25321.48880772  .00054672  00000+0  18462-2 0  9995
2 63713  53.1618  20.5412 0001960  53.6268 306.4913 15.30168396 32021
STARLINK-33745          
1 63714U 25087T   25321.48564221  .00028604  00000+0  97500-3 0  9991
2 63714  53.1609  20.5196 0001580  78.6431 281.4747 15.30171918 32029
STARLINK-33728          
1 63715U 25087U   25321.49302391  .00022818  00000+0  78067-3 0  9999
2 63715  53.1612  20.5646 0001203  71.7569 288.3562 15.30178794 32022
STARLINK-33749          
1 63716U 25087V   25321.39827466  .00014551  00000+0  50238-3 0  9999
2 63716  53.1597  21.3969 0001240  83.6213 276.4929 15.30204055 32004
STARLINK-33725          
1 63717U 25087W   25321.43087698  .00063620  00000+0  21432-2 0  9994
2 63717  53.1619  20.8887 0001485  93.3504 266.7667 15.30178609 32012
STARLINK-33641          
1 63718U 25087X   25321.44670473  .00022111  00000+0  75715-3 0  9999
2 63718  53.1607  20.9856 0001372  96.3070 263.8087 15.30169773 32019
STARLINK-33727          
1 63719U 25087Y   25321.48352971  .00008401  00000+0  29552-3 0  9998
2 63719  53.1622  20.5045 0001466  84.0704 276.0464 15.30190473 32022
STARLINK-33757          
1 63720U 25087Z   25321.44142796  .00034423  00000+0  11703-2 0  9999
2 63720  53.1613  20.9552 0001519 117.6691 242.4464 15.30163103 32014
STARLINK-33774          
1 63721U 25087AA  25321.45620294  .00058369  00000+0  19695-2 0  9998
2 63721  53.1599  21.0481 0001246  99.5056 260.6085 15.30165902 32011
STARLINK-33767          
1 63722U 25087AB  25321.49408300  .00048227  00000+0  16312-2 0  9990
2 63722  53.1614  20.5701 0001382  92.7945 267.3214 15.30173408 32021
STARLINK-33806          
1 63723U 25087AC  25321.43509742  .00018192  00000+0  62512-3 0  9999
2 63723  53.1614  20.9124 0001178  83.0664 277.0471 15.30185413 32010
